{"type": "FeatureCollection", "features": [ {"type": "Feature", "properties": {"norad_id": 38953, "name": "BEIDOU-2 G6 (C02)", "group": "beidou", "lat": -3.8819861291184066, "lon": -26.552459797235, "alt_km": 35758.833006972454, "timestamp": "2025-12-17T10:52:54.618332+00:00", "meta": {"OBJECT_NAME": "BEIDOU-2 G6 (C02)", "OBJECT_ID": "2012-059A", "EPOCH": "2025-12-16T18:53:36.756672", "MEAN_MOTION": 1.00269491, "ECCENTRICITY": 0.00081133, "INCLINATION": 3.9595, "RA_OF_ASC_NODE": 75.4664, "ARG_OF_PERICENTER": 291.2545, "MEAN_ANOMALY": 86.335, "EPHEMERIS_TYPE": 0, "CLASSIFICATION_TYPE": "U", "NORAD_CAT_ID": 38953, "ELEMENT_SET_NO": 999, "REV_AT_EPOCH": 4808, "BSTAR": 0, "MEAN_MOTION_DOT": -1.54e-06, "MEAN_MOTION_DDOT": 0}, "tle": {"line1": "1 38953U 12059A   25350.78723098 -.00000154  00000+0  00000+0 0  9993", "line2": "2 38953   3.9595  75.4664 0008113 291.2545  86.3350  1.00269491 48081"}}, "geometry": {"type": "Point", "coordinates": [-26.552459797235, -3.8819861291184066]}}, {"type": "Feature", "properties": {"norad_id": 40549, "name": "BEIDOU-3S IGSO-1S (C31)", "group": "beidou", "lat": 33.22402224853543, "lon": -28.463965246106707, "alt_km": 35905.56196602045, "timestamp": "2025-12-17T10:52:54.618343+00:00", "meta": {"OBJECT_NAME": "BEIDOU-3S IGSO-1S (C31)", "OBJECT_ID": "2015-019A", "EPOCH": "2025-12-16T22:00:09.125856", "MEAN_MOTION": 1.00292577, "ECCENTRICITY": 0.00363578, "INCLINATION": 49.5427, "RA_OF_ASC_NODE": 297.6612, "ARG_OF_PERICENTER": 193.8033, "MEAN_ANOMALY": 18.6613, "EPHEMERIS_TYPE": 0, "CLASSIFICATION_TYPE": "U", "NORAD_CAT_ID": 40549, "ELEMENT_SET_NO": 999, "REV_AT_EPOCH": 3924, "BSTAR": 0, "MEAN_MOTION_DOT": -1.91e-06, "MEAN_MOTION_DDOT": 0}, "tle": {"line1": "1 40549U 15019A   25350.91677229 -.00000191  00000+0  00000+0 0  9996", "line2": "2 40549  49.5427 297.6612 0036357 193.8033  18.6613  1.00292577 39245"}}, "geometry": {"type": "Point", "coordinates": [-28.463965246106707, 33.22402224853543]}}, {"type": "Feature", "properties": {"norad_id": 40748, "name": "BEIDOU-3S M2S (C58)", "group": "beidou", "lat": 52.42848342845172, "lon": 62.92379956697097, "alt_km": 21555.1231196574, "timestamp": "2025-12-17T10:52:54.618355+00:00", "meta": {"OBJECT_NAME": "BEIDOU-3S M2S (C58)", "OBJECT_ID": "2015-037A", "EPOCH": "2025-12-11T22:15:26.437248", "MEAN_MOTION": 1.8622897, "ECCENTRICITY": 0.00123447, "INCLINATION": 55.0397, "RA_OF_ASC_NODE": 308.4912, "ARG_OF_PERICENTER": 267.8245, "MEAN_ANOMALY": 92.025, "EPHEMERIS_TYPE": 0, "CLASSIFICATION_TYPE": "U", "NORAD_CAT_ID": 40748, "ELEMENT_SET_NO": 999, "REV_AT_EPOCH": 7063, "BSTAR": 0, "MEAN_MOTION_DOT": -8.9e-07, "MEAN_MOTION_DDOT": 0}, "tle": {"line1": "1 40748U 15037A   25345.92738932 -.00000089  00000+0  00000+0 0  9997", "line2": "2 40748  55.0397 308.4912 0012344 267.8245  92.0250  1.86228970 70636"}}, "geometry": {"type": "Point", "coordinates": [62.92379956697097, 52.42848342845172]}}, {"type": "Feature", "properties": {"norad_id": 40749, "name": "BEIDOU-3S M1S (C57)", "group": "beidou", "lat": -38.23411803316412, "lon": -85.16682037338404, "alt_km": 21523.84682369504, "timestamp": "2025-12-17T10:52:54.618367+00:00", "meta": {"OBJECT_NAME": "BEIDOU-3S M1S (C57)", "OBJECT_ID": "2015-037B", "EPOCH": "2025-12-11T14:53:54.000096", "MEAN_MOTION": 1.86253918, "ECCENTRICITY": 0.00034406, "INCLINATION": 55.0364, "RA_OF_ASC_NODE": 308.4915, "ARG_OF_PERICENTER": 358.1692, "MEAN_ANOMALY": 1.8205, "EPHEMERIS_TYPE": 0, "CLASSIFICATION_TYPE": "U", "NORAD_CAT_ID": 40749, "ELEMENT_SET_NO": 999, "REV_AT_EPOCH": 7063, "BSTAR": 0, "MEAN_MOTION_DOT": -8.8e-07, "MEAN_MOTION_DDOT": 0}, "tle": {"line1": "1 40749U 15037B   25345.62076389 -.00000088  00000+0  00000+0 0  9995", "line2": "2 40749  55.0364 308.4915 0003440 358.1692   1.8205  1.86253918 70639"}}, "geometry": {"type": "Point", "coordinates": [-85.16682037338404, -38.23411803316412]}}, {"type": "Feature", "properties": {"norad_id": 40938, "name": "BEIDOU-3S IGSO-2S (C56)", "group": "beidou", "lat": 49.161294008713945, "lon": -18.537698604742147, "alt_km": 35845.58046819746, "timestamp": "2025-12-17T10:52:54.618386+00:00", "meta": {"OBJECT_NAME": "BEIDOU-3S IGSO-2S (C56)", "OBJECT_ID": "2015-053A", "EPOCH": "2025-12-16T17:14:16.267776", "MEAN_MOTION": 1.00269476, "ECCENTRICITY": 0.00605277, "INCLINATION": 49.5044, "RA_OF_ASC_NODE": 260.9581, "ARG_OF_PERICENTER": 188.7289, "MEAN_ANOMALY": 350.4326, "EPHEMERIS_TYPE": 0, "CLASSIFICATION_TYPE": "U", "NORAD_CAT_ID": 40938, "ELEMENT_SET_NO": 999, "REV_AT_EPOCH": 3752, "BSTAR": 0, "MEAN_MOTION_DOT": -1.34e-06, "MEAN_MOTION_DDOT": 0}, "tle": {"line1": "1 40938U 15053A   25350.71824384 -.00000134  00000+0  00000+0 0  9997", "line2": "2 40938  49.5044 260.9581 0060527 188.7289 350.4326  1.00269476 37521"}}, "geometry": {"type": "Point", "coordinates": [-18.537698604742147, 49.161294008713945]}}, {"type": "Feature", "properties": {"norad_id": 41434, "name": "BEIDOU-2 IGSO-6 (C13)", "group": "beidou", "lat": -46.20511374551722, "lon": 2.8419953594337555, "alt_km": 35711.5892481907, "timestamp": "2025-12-17T10:52:54.618413+00:00", "meta": {"OBJECT_NAME": "BEIDOU-2 IGSO-6 (C13)", "OBJECT_ID": "2016-021A", "EPOCH": "2025-12-11T15:29:12.615360", "MEAN_MOTION": 1.00293077, "ECCENTRICITY": 0.00608616, "INCLINATION": 59.9644, "RA_OF_ASC_NODE": 39.9082, "ARG_OF_PERICENTER": 229.9753, "MEAN_ANOMALY": 135.9177, "EPHEMERIS_TYPE": 0, "CLASSIFICATION_TYPE": "U", "NORAD_CAT_ID": 41434, "ELEMENT_SET_NO": 999, "REV_AT_EPOCH": 3560, "BSTAR": 0, "MEAN_MOTION_DOT": -1.62e-06, "MEAN_MOTION_DDOT": 0}, "tle": {"line1": "1 41434U 16021A   25345.64528490 -.00000162  00000+0  00000+0 0  9991", "line2": "2 41434  59.9644  39.9082 0060861 229.9753 135.9177  1.00293077 35600"}}, "geometry": {"type": "Point", "coordinates": [2.8419953594337555, -46.20511374551722]}}, {"type": "Feature", "properties": {"norad_id": 41586, "name": "BEIDOU-2 G7 (C03)", "group": "beidou", "lat": -1.6312870986999854, "lon": -0.04939898205296077, "alt_km": 35779.13195571011, "timestamp": "2025-12-17T10:52:54.618431+00:00", "meta": {"OBJECT_NAME": "BEIDOU-2 G7 (C03)", "OBJECT_ID": "2016-037A", "EPOCH": "2025-12-16T21:14:09.225600", "MEAN_MOTION": 1.00273338, "ECCENTRICITY": 0.00050451, "INCLINATION": 1.767, "RA_OF_ASC_NODE": 67.812, "ARG_OF_PERICENTER": 3.4551, "MEAN_ANOMALY": 83.4859, "EPHEMERIS_TYPE": 0, "CLASSIFICATION_TYPE": "U", "NORAD_CAT_ID": 41586, "ELEMENT_SET_NO": 999, "REV_AT_EPOCH": 506, "BSTAR": 0, "MEAN_MOTION_DOT": -3.3e-06, "MEAN_MOTION_DDOT": 0}, "tle": {"line1": "1 41586U 16037A   25350.88482900 -.00000330  00000+0  00000+0 0  9990", "line2": "2 41586   1.7670  67.8120 0005045   3.4551  83.4859  1.00273338  5068"}}, "geometry": {"type": "Point", "coordinates": [-0.04939898205296077, -1.6312870986999854]}}, {"type": "Feature", "properties": {"norad_id": 43001, "name": "BEIDOU-3 M1 (C19)", "group": "beidou", "lat": -41.98389152374704, "lon": -74.44193602086696, "alt_km": 21523.737723895072, "timestamp": "2025-12-17T10:52:54.618444+00:00", "meta": {"OBJECT_NAME": "BEIDOU-3 M1 (C19)", "OBJECT_ID": "2017-069A", "EPOCH": "2025-12-15T11:51:52.212384", "MEAN_MOTION": 1.86231324, "ECCENTRICITY": 0.00094078, "INCLINATION": 56.5296, "RA_OF_ASC_NODE": 69.1425, "ARG_OF_PERICENTER": 302.6057, "MEAN_ANOMALY": 57.3228, "EPHEMERIS_TYPE": 0, "CLASSIFICATION_TYPE": "U", "NORAD_CAT_ID": 43001, "ELEMENT_SET_NO": 999, "REV_AT_EPOCH": 5518, "BSTAR": 0, "MEAN_MOTION_DOT": -8.2e-07, "MEAN_MOTION_DDOT": 0}, "tle": {"line1": "1 43001U 17069A   25349.49435431 -.00000082  00000+0  00000+0 0  9996", "line2": "2 43001  56.5296  69.1425 0009407 302.6057  57.3228  1.86231324 55189"}}, "geometry": {"type": "Point", "coordinates": [-74.44193602086696, -41.98389152374704]}}, {"type": "Feature", "properties": {"norad_id": 43002, "name": "BEIDOU-3 M2 (C20)", "group": "beidou", "lat": -56.266387581341206, "lon": -12.422514466222248, "alt_km": 21524.15688687492, "timestamp": "2025-12-17T10:52:54.618455+00:00", "meta": {"OBJECT_NAME": "BEIDOU-3 M2 (C20)", "OBJECT_ID": "2017-069B", "EPOCH": "2025-12-15T23:16:20.544672", "MEAN_MOTION": 1.86230882, "ECCENTRICITY": 0.00064213, "INCLINATION": 56.5297, "RA_OF_ASC_NODE": 69.1629, "ARG_OF_PERICENTER": 331.0436, "MEAN_ANOMALY": 28.9409, "EPHEMERIS_TYPE": 0, "CLASSIFICATION_TYPE": "U", "NORAD_CAT_ID": 43002, "ELEMENT_SET_NO": 999, "REV_AT_EPOCH": 5518, "BSTAR": 0, "MEAN_MOTION_DOT": -8.1e-07, "MEAN_MOTION_DDOT": 0}, "tle": {"line1": "1 43002U 17069B   25349.96968223 -.00000081  00000+0  00000+0 0  9998", "line2": "2 43002  56.5297  69.1629 0006421 331.0436  28.9409  1.86230882 55180"}}, "geometry": {"type": "Point", "coordinates": [-12.422514466222248, -56.266387581341206]}}, {"type": "Feature", "properties": {"norad_id": 43107, "name": "BEIDOU-3 M7 (C27)", "group": "beidou", "lat": 54.39549171510393, "lon": 33.722550573813294, "alt_km": 21514.496791245077, "timestamp": "2025-12-17T10:52:54.618467+00:00", "meta": {"OBJECT_NAME": "BEIDOU-3 M7 (C27)", "OBJECT_ID": "2018-003A", "EPOCH": "2025-12-13T13:33:25.741728", "MEAN_MOTION": 1.86232202, "ECCENTRICITY": 0.00026561, "INCLINATION": 54.4958, "RA_OF_ASC_NODE": 308.7854, "ARG_OF_PERICENTER": 70.3198, "MEAN_ANOMALY": 289.6984, "EPHEMERIS_TYPE": 0, "CLASSIFICATION_TYPE": "U", "NORAD_CAT_ID": 43107, "ELEMENT_SET_NO": 999, "REV_AT_EPOCH": 5389, "BSTAR": 0, "MEAN_MOTION_DOT": -9.8e-07, "MEAN_MOTION_DDOT": 0}, "tle": {"line1": "1 43107U 18003A   25347.56488127 -.00000098  00000+0  00000+0 0  9995", "line2": "2 43107  54.4958 308.7854 0002656  70.3198 289.6984  1.86232202 53891"}}, "geometry": {"type": "Point", "coordinates": [33.722550573813294, 54.39549171510393]}}]}